$$SOE
2461288.500000000, A.D. 2026-Sep-05 00:00:00.0000, 1.454760845668985E+08, 5.247123266054260E+08, -4.402190031044331E+07,
2461295.500000000, A.D. 2026-Sep-12 00:00:00.0000, 1.378426559987846E+08, 5.289153736772687E+08, -4.591943615786344E+07,
2461302.500000000, A.D. 2026-Sep-19 00:00:00.0000, 1.301686020375054E+08, 5.329627966179080E+08, -4.780345615935457E+07,
2461309.500000000, A.D. 2026-Sep-26 00:00:00.0000, 1.224566350172549E+08, 5.368552727768822E+08, -4.967357331033608E+07,
2461316.500000000, A.D. 2026-Oct-03 00:00:00.0000, 1.147094129161156E+08, 5.405935001724366E+08, -5.152941306008130E+07,
2461323.500000000, A.D. 2026-Oct-10 00:00:00.0000, 1.069295407219227E+08, 5.441781960868835E+08, -5.337061285459930E+07,
2461330.500000000, A.D. 2026-Oct-17 00:00:00.0000, 9.911957174757840E+07, 5.476100956786633E+08, -5.519682169778717E+07,
2461337.500000000, A.D. 2026-Oct-24 00:00:00.0000, 9.128200891861622E+07, 5.508899505843040E+08, -5.700769973457006E+07,
2461344.500000000, A.D. 2026-Oct-31 00:00:00.0000, 8.341930613048612E+07, 5.540185274395765E+08, -5.880291787015224E+07,
2461351.500000000, A.D. 2026-Nov-07 00:00:00.0000, 7.553387001357026E+07, 5.569966063901482E+08, -6.058215745001414E+07,
2461358.500000000, A.D. 2026-Nov-14 00:00:00.0000, 6.762806230621584E+07, 5.598249804756557E+08, -6.234510994617769E+07,
2461365.500000000, A.D. 2026-Nov-21 00:00:00.0000, 5.970420102413292E+07, 5.625044565650750E+08, -6.409147642736578E+07,
2461372.500000000, A.D. 2026-Nov-28 00:00:00.0000, 5.176455942768525E+07, 5.650358548299909E+08, -6.582096696636993E+07,
2461379.500000000, A.D. 2026-Dec-05 00:00:00.0000, 4.381136640509880E+07, 5.674200060952264E+08, -6.753330036924753E+07,
2461386.500000000, A.D. 2026-Dec-12 00:00:00.0000, 3.584680843582429E+07, 5.696577501751174E+08, -6.922820398664805E+07,
2461393.500000000, A.D. 2026-Dec-19 00:00:00.0000, 2.787303124643106E+07, 5.717499351985412E+08, -7.090541343295720E+07,
2461400.500000000, A.D. 2026-Dec-26 00:00:00.0000, 1.989214101588487E+07, 5.736974170515922E+08, -7.256467227045190E+07,
2461407.500000000, A.D. 2027-Jan-02 00:00:00.0000, 1.190620540528514E+07, 5.755010587445573E+08, -7.420573169889969E+07,
2461414.500000000, A.D. 2027-Jan-09 00:00:00.0000, 3.917254528300468E+06, 5.771617297211431E+08, -7.582835025935444E+07,
2461421.500000000, A.D. 2027-Jan-16 00:00:00.0000, -4.072718103249227E+06, 5.786803051164908E+08, -7.743229355439168E+07,
2461428.500000000, A.D. 2027-Jan-23 00:00:00.0000, -1.206175461382591E+07, 5.800576649219921E+08, -7.901733399197820E+07,
2461435.500000000, A.D. 2027-Jan-30 00:00:00.0000, -2.004793159224837E+07, 5.812946930067862E+08, -8.058325057385460E+07,
2461442.500000000, A.D. 2027-Feb-06 00:00:00.0000, -2.802935829011758E+07, 5.823922763338314E+08, -8.212982873942760E+07,
2461449.500000000, A.D. 2027-Feb-13 00:00:00.0000, -3.600417465208842E+07, 5.833513055884694E+08, -8.365686012324616E+07,
2461456.500000000, A.D. 2027-Feb-20 00:00:00.0000, -4.397055154229410E+07, 5.841726764263356E+08, -8.516414207380092E+07,
2461463.500000000, A.D. 2027-Feb-27 00:00:00.0000, -5.192669177162241E+07, 5.848572881239830E+08, -8.665147732386434E+07,
2461470.500000000, A.D. 2027-Mar-06 00:00:00.0000, -5.987082890875352E+07, 5.854060415531549E+08, -8.811867393193677E+07,
2461477.500000000, A.D. 2027-Mar-13 00:00:00.0000, -6.780122547505863E+07, 5.858198385272989E+08, -8.956554518071589E+07,
2461484.500000000, A.D. 2027-Mar-20 00:00:00.0000, -7.571617165217394E+07, 5.860995816840168E+08, -9.099190939711124E+07,
2461491.500000000, A.D. 2027-Mar-27 00:00:00.0000, -8.361398429986769E+07, 5.862461743527340E+08, -9.239758975697035E+07,
2461498.500000000, A.D. 2027-Apr-03 00:00:00.0000, -9.149300608098641E+07, 5.862605203583634E+08, -9.378241409683117E+07,
2461505.500000000, A.D. 2027-Apr-10 00:00:00.0000, -9.935160463188332E+07, 5.861435237826968E+08, -9.514621473624523E+07,
2461512.500000000, A.D. 2027-Apr-17 00:00:00.0000, -1.071881717558679E+08, 5.858960886679853E+08, -9.648882831366181E+07,
2461519.500000000, A.D. 2027-Apr-24 00:00:00.0000, -1.150011225600716E+08, 5.855191185993708E+08, -9.781009564800107E+07,
2461526.500000000, A.D. 2027-May-01 00:00:00.0000, -1.227888942357569E+08, 5.850135161928883E+08, -9.910986165089339E+07,
2461533.500000000, A.D. 2027-May-08 00:00:00.0000, -1.305499441744074E+08, 5.843801832365779E+08, -1.003879752564506E+08,
2461540.500000000, A.D. 2027-May-15 00:00:00.0000, -1.382827489160177E+08, 5.836200224376183E+08, -1.016442891533025E+08,
2461547.500000000, A.D. 2027-May-22 00:00:00.0000, -1.459858054924845E+08, 5.827339381828148E+08, -1.028786593869858E+08,
2461554.500000000, A.D. 2027-May-29 00:00:00.0000, -1.536576318098643E+08, 5.817228348425232E+08, -1.040909452598901E+08,
2461561.500000000, A.D. 2027-Jun-05 00:00:00.0000, -1.612967651849174E+08, 5.805876157493107E+08, -1.052810093538300E+08,
2461568.500000000, A.D. 2027-Jun-12 00:00:00.0000, -1.689017610429829E+08, 5.793291832830657E+08, -1.064487174558100E+08,
2461575.500000000, A.D. 2027-Jun-19 00:00:00.0000, -1.764711921075470E+08, 5.779484391268786E+08, -1.075939384327377E+08,
2461582.500000000, A.D. 2027-Jun-26 00:00:00.0000, -1.840036478016229E+08, 5.764462844316658E+08, -1.087165441017113E+08,
2461589.500000000, A.D. 2027-Jul-03 00:00:00.0000, -1.914977337283769E+08, 5.748236198972685E+08, -1.098164091069780E+08,
2461596.500000000, A.D. 2027-Jul-10 00:00:00.0000, -1.989520711936315E+08, 5.730813457782409E+08, -1.108934108058746E+08,
2461603.500000000, A.D. 2027-Jul-17 00:00:00.0000, -2.063652967332685E+08, 5.712203617748762E+08, -1.119474291698400E+08,
2461610.500000000, A.D. 2027-Jul-24 00:00:00.0000, -2.137360614884531E+08, 5.692415667459332E+08, -1.129783467194889E+08,
2461617.500000000, A.D. 2027-Jul-31 00:00:00.0000, -2.210630300167615E+08, 5.671458584777001E+08, -1.139860485117022E+08,
2461624.500000000, A.D. 2027-Aug-07 00:00:00.0000, -2.283448787397656E+08, 5.649341346604588E+08, -1.149704220658064E+08,
2461631.500000000, A.D. 2027-Aug-14 00:00:00.0000, -2.355802963279939E+08, 5.626072948187439E+08, -1.159313570383179E+08,
2461638.500000000, A.D. 2027-Aug-21 00:00:00.0000, -2.427679854045298E+08, 5.601662398305391E+08, -1.168687449775904E+08,
2461645.500000000, A.D. 2027-Aug-28 00:00:00.0000, -2.499066621363500E+08, 5.576118702378758E+08, -1.177824793744992E+08,
2461652.500000000, A.D. 2027-Sep-04 00:00:00.0000, -2.569950548948999E+08, 5.549450858515524E+08, -1.186724556967208E+08,
2461659.500000000, A.D. 2027-Sep-11 00:00:00.0000, -2.640319033807522E+08, 5.521667859891356E+08, -1.195385713330923E+08,
2461666.500000000, A.D. 2027-Sep-18 00:00:00.0000, -2.710159580784820E+08, 5.492778696960521E+08, -1.203807255135785E+08,
2461673.500000000, A.D. 2027-Sep-25 00:00:00.0000, -2.779459798123621E+08, 5.462792358720455E+08, -1.211988192323066E+08,
2461680.500000000, A.D. 2027-Oct-02 00:00:00.0000, -2.848207393273789E+08, 5.431717833305703E+08, -1.219927551784252E+08,
2461687.500000000, A.D. 2027-Oct-09 00:00:00.0000, -2.916390168726864E+08, 5.399564107866956E+08, -1.227624376773359E+08,
2461694.500000000, A.D. 2027-Oct-16 00:00:00.0000, -2.983996017238994E+08, 5.366340167187510E+08, -1.235077726526705E+08,
2461701.500000000, A.D. 2027-Oct-23 00:00:00.0000, -3.051012913839414E+08, 5.332054990981303E+08, -1.242286676333772E+08,
2461708.500000000, A.D. 2027-Oct-30 00:00:00.0000, -3.117428900874442E+08, 5.296717555976785E+08, -1.249250317904563E+08,
2461715.500000000, A.D. 2027-Nov-06 00:00:00.0000, -3.183232077720083E+08, 5.260336854071456E+08, -1.255967758046023E+08,
2461722.500000000, A.D. 2027-Nov-13 00:00:00.0000, -3.248410615012786E+08, 5.222921905799675E+08, -1.262438115524701E+08,
2461729.500000000, A.D. 2027-Nov-20 00:00:00.0000, -3.312952764371718E+08, 5.184481747251788E+08, -1.268660520560426E+08,
2461736.500000000, A.D. 2027-Nov-27 00:00:00.0000, -3.376846847437070E+08, 5.145025420084554E+08, -1.274634116009487E+08,
2461743.500000000, A.D. 2027-Dec-04 00:00:00.0000, -3.440081244462240E+08, 5.104561973765871E+08, -1.280358057636036E+08,
2461750.500000000, A.D. 2027-Dec-11 00:00:00.0000, -3.502644387962800E+08, 5.063100470417826E+08, -1.285831513754859E+08,
2461757.500000000, A.D. 2027-Dec-18 00:00:00.0000, -3.564524758668991E+08, 5.020649988867788E+08, -1.291053664773370E+08,
2461764.500000000, A.D. 2027-Dec-25 00:00:00.0000, -3.625710882259431E+08, 4.977219627886478E+08, -1.296023702772458E+08,
2461771.500000000, A.D. 2028-Jan-01 00:00:00.0000, -3.686191326459827E+08, 4.932818508759892E+08, -1.300740831150779E+08,
$$EOE